{"type": "FeatureCollection", "features": [ {"type": "Feature", "properties": {"norad_id": 58662, "name": "TIANMU-1 21", "group": "weather", "lat": 52.06547453213268, "lon": 87.14077515328216, "alt_km": 469.7481791635628, "timestamp": "2025-12-09T09:46:47.291151+00:00", "meta": {"OBJECT_NAME": "TIANMU-1 21", "OBJECT_ID": "2023-208C", "EPOCH": "2025-12-08T22:34:23.476800", "MEAN_MOTION": 15.31423162, "ECCENTRICITY": 0.0005914, "INCLINATION": 97.4377, "RA_OF_ASC_NODE": 96.3209, "ARG_OF_PERICENTER": 276.3841, "MEAN_ANOMALY": 83.6726, "EPHEMERIS_TYPE": 0, "CLASSIFICATION_TYPE": "U", "NORAD_CAT_ID": 58662, "ELEMENT_SET_NO": 999, "REV_AT_EPOCH": 10841, "BSTAR": 0.00045174542, "MEAN_MOTION_DOT": 0.00013647, "MEAN_MOTION_DDOT": 0}, "tle": {"line1": "1 58662U 23208C   25342.94054950  .00013647  00000+0  45175-3 0  9999", "line2": "2 58662  97.4377  96.3209 0005914 276.3841  83.6726 15.31423162108419"}}, "geometry": {"type": "Point", "coordinates": [87.14077515328216, 52.06547453213268]}}, {"type": "Feature", "properties": {"norad_id": 58663, "name": "TIANMU-1 22", "group": "weather", "lat": 21.838567210625236, "lon": 91.51070547268304, "alt_km": 482.720594796936, "timestamp": "2025-12-09T09:46:47.291167+00:00", "meta": {"OBJECT_NAME": "TIANMU-1 22", "OBJECT_ID": "2023-208D", "EPOCH": "2025-12-08T22:40:41.804256", "MEAN_MOTION": 15.27502556, "ECCENTRICITY": 0.00028102, "INCLINATION": 97.4384, "RA_OF_ASC_NODE": 94.0507, "ARG_OF_PERICENTER": 305.8626, "MEAN_ANOMALY": 54.2352, "EPHEMERIS_TYPE": 0, "CLASSIFICATION_TYPE": "U", "NORAD_CAT_ID": 58663, "ELEMENT_SET_NO": 999, "REV_AT_EPOCH": 10825, "BSTAR": 0.00040405687, "MEAN_MOTION_DOT": 0.00010803, "MEAN_MOTION_DDOT": 0}, "tle": {"line1": "1 58663U 23208D   25342.94492829  .00010803  00000+0  40406-3 0  9994", "line2": "2 58663  97.4384  94.0507 0002810 305.8626  54.2352 15.27502556108256"}}, "geometry": {"type": "Point", "coordinates": [91.51070547268304, 21.838567210625236]}}, {"type": "Feature", "properties": {"norad_id": 58700, "name": "TIANMU-1 15", "group": "weather", "lat": -6.4550378551556875, "lon": -15.960388860777005, "alt_km": 498.0297387884293, "timestamp": "2025-12-09T09:46:47.291184+00:00", "meta": {"OBJECT_NAME": "TIANMU-1 15", "OBJECT_ID": "2024-004A", "EPOCH": "2025-12-08T23:30:47.801952", "MEAN_MOTION": 15.24601636, "ECCENTRICITY": 0.00053548, "INCLINATION": 97.463, "RA_OF_ASC_NODE": 164.4633, "ARG_OF_PERICENTER": 314.1636, "MEAN_ANOMALY": 45.916, "EPHEMERIS_TYPE": 0, "CLASSIFICATION_TYPE": "U", "NORAD_CAT_ID": 58700, "ELEMENT_SET_NO": 999, "REV_AT_EPOCH": 10677, "BSTAR": 0.00036645621, "MEAN_MOTION_DOT": 8.97e-05, "MEAN_MOTION_DDOT": 0}, "tle": {"line1": "1 58700U 24004A   25342.97971993  .00008970  00000+0  36646-3 0  9991", "line2": "2 58700  97.4630 164.4633 0005354 314.1636  45.9160 15.24601636106779"}}, "geometry": {"type": "Point", "coordinates": [-15.960388860777005, -6.4550378551556875]}}, {"type": "Feature", "properties": {"norad_id": 58701, "name": "TIANMU-1 16", "group": "weather", "lat": -82.44450513245951, "lon": -114.78982537262664, "alt_km": 497.6187338130594, "timestamp": "2025-12-09T09:46:47.291200+00:00", "meta": {"OBJECT_NAME": "TIANMU-1 16", "OBJECT_ID": "2024-004B", "EPOCH": "2025-12-08T23:08:26.047968", "MEAN_MOTION": 15.24353377, "ECCENTRICITY": 0.00046663, "INCLINATION": 97.4569, "RA_OF_ASC_NODE": 163.8407, "ARG_OF_PERICENTER": 312.7918, "MEAN_ANOMALY": 47.2927, "EPHEMERIS_TYPE": 0, "CLASSIFICATION_TYPE": "U", "NORAD_CAT_ID": 58701, "ELEMENT_SET_NO": 999, "REV_AT_EPOCH": 10677, "BSTAR": 0.00034755409, "MEAN_MOTION_DOT": 8.44e-05, "MEAN_MOTION_DDOT": 0}, "tle": {"line1": "1 58701U 24004B   25342.96419037  .00008440  00000+0  34755-3 0  9998", "line2": "2 58701  97.4569 163.8407 0004666 312.7918  47.2927 15.24353377106777"}}, "geometry": {"type": "Point", "coordinates": [-114.78982537262664, -82.44450513245951]}}, {"type": "Feature", "properties": {"norad_id": 58702, "name": "TIANMU-1 17", "group": "weather", "lat": -4.8634285199617056, "lon": 165.32886305043323, "alt_km": 494.2147462506009, "timestamp": "2025-12-09T09:46:47.291217+00:00", "meta": {"OBJECT_NAME": "TIANMU-1 17", "OBJECT_ID": "2024-004C", "EPOCH": "2025-12-08T22:46:24.606624", "MEAN_MOTION": 15.24400311, "ECCENTRICITY": 0.00038881, "INCLINATION": 97.4603, "RA_OF_ASC_NODE": 164.2335, "ARG_OF_PERICENTER": 316.8759, "MEAN_ANOMALY": 43.2174, "EPHEMERIS_TYPE": 0, "CLASSIFICATION_TYPE": "U", "NORAD_CAT_ID": 58702, "ELEMENT_SET_NO": 999, "REV_AT_EPOCH": 10676, "BSTAR": 0.0004336499, "MEAN_MOTION_DOT": 0.00010565, "MEAN_MOTION_DDOT": 0}, "tle": {"line1": "1 58702U 24004C   25342.94889591  .00010565  00000+0  43365-3 0  9991", "line2": "2 58702  97.4603 164.2335 0003888 316.8759  43.2174 15.24400311106765"}}, "geometry": {"type": "Point", "coordinates": [165.32886305043323, -4.8634285199617056]}}, {"type": "Feature", "properties": {"norad_id": 58703, "name": "TIANMU-1 18", "group": "weather", "lat": 81.90494614675201, "lon": 97.7363044954928, "alt_km": 486.60906513455393, "timestamp": "2025-12-09T09:46:47.291236+00:00", "meta": {"OBJECT_NAME": "TIANMU-1 18", "OBJECT_ID": "2024-004D", "EPOCH": "2025-12-08T23:56:51.895968", "MEAN_MOTION": 15.2438746, "ECCENTRICITY": 0.00032508, "INCLINATION": 97.462, "RA_OF_ASC_NODE": 164.4767, "ARG_OF_PERICENTER": 317.7129, "MEAN_ANOMALY": 42.3857, "EPHEMERIS_TYPE": 0, "CLASSIFICATION_TYPE": "U", "NORAD_CAT_ID": 58703, "ELEMENT_SET_NO": 999, "REV_AT_EPOCH": 10677, "BSTAR": 0.00035627964, "MEAN_MOTION_DOT": 8.661e-05, "MEAN_MOTION_DDOT": 0}, "tle": {"line1": "1 58703U 24004D   25342.99782287  .00008661  00000+0  35628-3 0  9998", "line2": "2 58703  97.4620 164.4767 0003250 317.7129  42.3857 15.24387460106778"}}, "geometry": {"type": "Point", "coordinates": [97.7363044954928, 81.90494614675201]}}, {"type": "Feature", "properties": {"norad_id": 58990, "name": "INSAT-3DS", "group": "weather", "lat": -0.01309799595853132, "lon": -52.81568975708609, "alt_km": 35781.52070507044, "timestamp": "2025-12-09T09:46:47.291256+00:00", "meta": {"OBJECT_NAME": "INSAT-3DS", "OBJECT_ID": "2024-033A", "EPOCH": "2025-12-08T23:20:38.624928", "MEAN_MOTION": 1.0026959, "ECCENTRICITY": 0.00016622, "INCLINATION": 0.0157, "RA_OF_ASC_NODE": 80.0081, "ARG_OF_PERICENTER": 184.8154, "MEAN_ANOMALY": 245.3901, "EPHEMERIS_TYPE": 0, "CLASSIFICATION_TYPE": "U", "NORAD_CAT_ID": 58990, "ELEMENT_SET_NO": 999, "REV_AT_EPOCH": 4516, "BSTAR": 0, "MEAN_MOTION_DOT": -1.53e-06, "MEAN_MOTION_DDOT": 0}, "tle": {"line1": "1 58990U 24033A   25342.97266927 -.00000153  00000+0  00000+0 0  9995", "line2": "2 58990   0.0157  80.0081 0001662 184.8154 245.3901  1.00269590 45161"}}, "geometry": {"type": "Point", "coordinates": [-52.81568975708609, -0.01309799595853132]}}, {"type": "Feature", "properties": {"norad_id": 59051, "name": "METEOR-M2 4", "group": "weather", "lat": 42.82226341234421, "lon": -67.76622346578338, "alt_km": 809.418515725376, "timestamp": "2025-12-09T09:46:47.291274+00:00", "meta": {"OBJECT_NAME": "METEOR-M2 4", "OBJECT_ID": "2024-039A", "EPOCH": "2025-12-08T23:26:49.538400", "MEAN_MOTION": 14.22400291, "ECCENTRICITY": 0.00072521, "INCLINATION": 98.6761, "RA_OF_ASC_NODE": 299.945, "ARG_OF_PERICENTER": 9.26, "MEAN_ANOMALY": 350.871, "EPHEMERIS_TYPE": 0, "CLASSIFICATION_TYPE": "U", "NORAD_CAT_ID": 59051, "ELEMENT_SET_NO": 999, "REV_AT_EPOCH": 9222, "BSTAR": 5.6144577e-05, "MEAN_MOTION_DOT": 8.1e-07, "MEAN_MOTION_DDOT": 0}, "tle": {"line1": "1 59051U 24039A   25342.97696225  .00000081  00000+0  56145-4 0  9993", "line2": "2 59051  98.6761 299.9450 0007252   9.2600 350.8710 14.22400291 92224"}}, "geometry": {"type": "Point", "coordinates": [-67.76622346578338, 42.82226341234421]}}, {"type": "Feature", "properties": {"norad_id": 60133, "name": "GOES 19", "group": "weather", "lat": -0.003330946344785841, "lon": 149.9034351471784, "alt_km": 35791.31468204995, "timestamp": "2025-12-09T09:46:47.291292+00:00", "meta": {"OBJECT_NAME": "GOES 19", "OBJECT_ID": "2024-119A", "EPOCH": "2025-12-08T21:48:24.352416", "MEAN_MOTION": 1.00271448, "ECCENTRICITY": 0.00013499, "INCLINATION": 0.0087, "RA_OF_ASC_NODE": 198.1567, "ARG_OF_PERICENTER": 105.4692, "MEAN_ANOMALY": 26.2013, "EPHEMERIS_TYPE": 0, "CLASSIFICATION_TYPE": "U", "NORAD_CAT_ID": 60133, "ELEMENT_SET_NO": 999, "REV_AT_EPOCH": 505, "BSTAR": 0, "MEAN_MOTION_DOT": -2.46e-06, "MEAN_MOTION_DDOT": 0}, "tle": {"line1": "1 60133U 24119A   25342.90861519 -.00000246  00000+0  00000+0 0  9996", "line2": "2 60133   0.0087 198.1567 0001349 105.4692  26.2013  1.00271448  5052"}}, "geometry": {"type": "Point", "coordinates": [149.9034351471784, -0.003330946344785841]}}, {"type": "Feature", "properties": {"norad_id": 65815, "name": "FENGYUN 3H", "group": "weather", "lat": -47.08072553375389, "lon": -67.49880765590751, "alt_km": 832.727867022335, "timestamp": "2025-12-09T09:46:47.291312+00:00", "meta": {"OBJECT_NAME": "FENGYUN 3H", "OBJECT_ID": "2025-219A", "EPOCH": "2025-12-09T03:14:22.781760", "MEAN_MOTION": 14.19902981, "ECCENTRICITY": 6.05e-05, "INCLINATION": 98.658, "RA_OF_ASC_NODE": 282.8038, "ARG_OF_PERICENTER": 84.326, "MEAN_ANOMALY": 275.7985, "EPHEMERIS_TYPE": 0, "CLASSIFICATION_TYPE": "U", "NORAD_CAT_ID": 65815, "ELEMENT_SET_NO": 999, "REV_AT_EPOCH": 1041, "BSTAR": 9.9066e-05, "MEAN_MOTION_DOT": 1.67e-06, "MEAN_MOTION_DDOT": 0}, "tle": {"line1": "1 65815U 25219A   25343.13498590  .00000167  00000+0  99066-4 0  9997", "line2": "2 65815  98.6580 282.8038 0000605  84.3260 275.7985 14.19902981 10411"}}, "geometry": {"type": "Point", "coordinates": [-67.49880765590751, -47.08072553375389]}}]}